{"type": "FeatureCollection", "features": [ {"type": "Feature", "properties": {"norad_id": 66989, "name": "CZ-4B R/B", "group": "last-30-days", "lat": 11.997990117531241, "lon": 62.910054431819304, "alt_km": 302.8516481326833, "timestamp": "2025-12-24T07:45:04.934687+00:00", "meta": {"OBJECT_NAME": "CZ-4B R/B", "OBJECT_ID": "2025-289B", "EPOCH": "2025-12-23T19:27:47.688768", "MEAN_MOTION": 15.69881193, "ECCENTRICITY": 0.01406583, "INCLINATION": 97.5236, "RA_OF_ASC_NODE": 63.9689, "ARG_OF_PERICENTER": 320.9393, "MEAN_ANOMALY": 38.1775, "EPHEMERIS_TYPE": 0, "CLASSIFICATION_TYPE": "U", "NORAD_CAT_ID": 66989, "ELEMENT_SET_NO": 999, "REV_AT_EPOCH": 230, "BSTAR": 0.00058913735, "MEAN_MOTION_DOT": 0.00125703, "MEAN_MOTION_DDOT": 6.84473e-06}, "tle": {"line1": "1 66989U 25289B   25357.81096862  .00125703  68447-5  58914-3 0  9998", "line2": "2 66989  97.5236  63.9689 0140658 320.9393  38.1775 15.69881193  2303"}}, "geometry": {"type": "Point", "coordinates": [62.910054431819304, 11.997990117531241]}}, {"type": "Feature", "properties": {"norad_id": 66990, "name": "TJS-22", "group": "last-30-days", "lat": -0.3355993770680028, "lon": -84.17930617913605, "alt_km": 35771.88982454623, "timestamp": "2025-12-24T07:45:04.934701+00:00", "meta": {"OBJECT_NAME": "TJS-22", "OBJECT_ID": "2025-290A", "EPOCH": "2025-12-23T08:28:29.282016", "MEAN_MOTION": 1.0027124, "ECCENTRICITY": 0.00034199, "INCLINATION": 1.9618, "RA_OF_ASC_NODE": 285.032, "ARG_OF_PERICENTER": 342.8999, "MEAN_ANOMALY": 17.7852, "EPHEMERIS_TYPE": 0, "CLASSIFICATION_TYPE": "U", "NORAD_CAT_ID": 66990, "ELEMENT_SET_NO": 999, "REV_AT_EPOCH": 26, "BSTAR": 0, "MEAN_MOTION_DOT": 1.6e-07, "MEAN_MOTION_DDOT": 0}, "tle": {"line1": "1 66990U 25290A   25357.35311669  .00000016  00000+0  00000+0 0  9999", "line2": "2 66990   1.9618 285.0320 0003419 342.8999  17.7852  1.00271240   263"}}, "geometry": {"type": "Point", "coordinates": [-84.17930617913605, -0.3355993770680028]}}, {"type": "Feature", "properties": {"norad_id": 66991, "name": "CZ-3B R/B", "group": "last-30-days", "lat": -16.264099883739135, "lon": 149.6223449668518, "alt_km": 479.1350834540044, "timestamp": "2025-12-24T07:45:04.934713+00:00", "meta": {"OBJECT_NAME": "CZ-3B R/B", "OBJECT_ID": "2025-290B", "EPOCH": "2025-12-15T17:23:33.043200", "MEAN_MOTION": 2.38388611, "ECCENTRICITY": 0.7240884, "INCLINATION": 28.4636, "RA_OF_ASC_NODE": 300.4666, "ARG_OF_PERICENTER": 182.7002, "MEAN_ANOMALY": 168.625, "EPHEMERIS_TYPE": 0, "CLASSIFICATION_TYPE": "U", "NORAD_CAT_ID": 66991, "ELEMENT_SET_NO": 999, "REV_AT_EPOCH": 16, "BSTAR": 0.00075879, "MEAN_MOTION_DOT": 0.00057911, "MEAN_MOTION_DDOT": -2.0514e-07}, "tle": {"line1": "1 66991U 25290B   25349.72468800  .00057911 -20514-6  75879-3 0  9998", "line2": "2 66991  28.4636 300.4666 7240884 182.7002 168.6250  2.38388611   165"}}, "geometry": {"type": "Point", "coordinates": [149.6223449668518, -16.264099883739135]}}, {"type": "Feature", "properties": {"norad_id": 66993, "name": "2025-292A", "group": "last-30-days", "lat": 54.810001035198525, "lon": 59.77265565320184, "alt_km": 557.6042311239316, "timestamp": "2025-12-24T07:45:04.934724+00:00", "meta": {"OBJECT_NAME": "2025-292A", "OBJECT_ID": "2025-292A", "EPOCH": "2025-12-23T21:55:40.452960", "MEAN_MOTION": 15.04573755, "ECCENTRICITY": 0.0014442, "INCLINATION": 97.6502, "RA_OF_ASC_NODE": 70.356, "ARG_OF_PERICENTER": 231.783, "MEAN_ANOMALY": 128.2096, "EPHEMERIS_TYPE": 0, "CLASSIFICATION_TYPE": "U", "NORAD_CAT_ID": 66993, "ELEMENT_SET_NO": 999, "REV_AT_EPOCH": 207, "BSTAR": 0.00028935198, "MEAN_MOTION_DOT": 4.006e-05, "MEAN_MOTION_DDOT": 0}, "tle": {"line1": "1 66993U 25292A   25357.91366265  .00004006  00000+0  28935-3 0  9992", "line2": "2 66993  97.6502  70.3560 0014442 231.7830 128.2096 15.04573755  2073"}}, "geometry": {"type": "Point", "coordinates": [59.77265565320184, 54.810001035198525]}}, {"type": "Feature", "properties": {"norad_id": 66994, "name": "2025-292B", "group": "last-30-days", "lat": 57.00672527533793, "lon": 58.813641938812495, "alt_km": 556.9944698223389, "timestamp": "2025-12-24T07:45:04.934735+00:00", "meta": {"OBJECT_NAME": "2025-292B", "OBJECT_ID": "2025-292B", "EPOCH": "2025-12-23T21:55:05.472192", "MEAN_MOTION": 15.0462109, "ECCENTRICITY": 0.0014221, "INCLINATION": 97.6511, "RA_OF_ASC_NODE": 70.3578, "ARG_OF_PERICENTER": 232.1032, "MEAN_ANOMALY": 127.8908, "EPHEMERIS_TYPE": 0, "CLASSIFICATION_TYPE": "U", "NORAD_CAT_ID": 66994, "ELEMENT_SET_NO": 999, "REV_AT_EPOCH": 207, "BSTAR": 0.00034308523, "MEAN_MOTION_DOT": 4.768e-05, "MEAN_MOTION_DDOT": 0}, "tle": {"line1": "1 66994U 25292B   25357.91325778  .00004768  00000+0  34309-3 0  9994", "line2": "2 66994  97.6511  70.3578 0014221 232.1032 127.8908 15.04621090  2070"}}, "geometry": {"type": "Point", "coordinates": [58.813641938812495, 57.00672527533793]}}, {"type": "Feature", "properties": {"norad_id": 66995, "name": "2025-292C", "group": "last-30-days", "lat": 57.865772998541274, "lon": 58.40623628528672, "alt_km": 556.9954130586693, "timestamp": "2025-12-24T07:45:04.934744+00:00", "meta": {"OBJECT_NAME": "2025-292C", "OBJECT_ID": "2025-292C", "EPOCH": "2025-12-23T21:54:51.994656", "MEAN_MOTION": 15.04651918, "ECCENTRICITY": 0.00145296, "INCLINATION": 97.6502, "RA_OF_ASC_NODE": 70.3566, "ARG_OF_PERICENTER": 232.5123, "MEAN_ANOMALY": 127.4782, "EPHEMERIS_TYPE": 0, "CLASSIFICATION_TYPE": "U", "NORAD_CAT_ID": 66995, "ELEMENT_SET_NO": 999, "REV_AT_EPOCH": 207, "BSTAR": 0.00039375603, "MEAN_MOTION_DOT": 5.487e-05, "MEAN_MOTION_DDOT": 0}, "tle": {"line1": "1 66995U 25292C   25357.91310179  .00005487  00000+0  39376-3 0  9992", "line2": "2 66995  97.6502  70.3566 0014529 232.5123 127.4782 15.04651918  2072"}}, "geometry": {"type": "Point", "coordinates": [58.40623628528672, 57.865772998541274]}}, {"type": "Feature", "properties": {"norad_id": 66996, "name": "2025-292D", "group": "last-30-days", "lat": 59.72828668080944, "lon": 57.44967439296837, "alt_km": 556.1349988075845, "timestamp": "2025-12-24T07:45:04.934754+00:00", "meta": {"OBJECT_NAME": "2025-292D", "OBJECT_ID": "2025-292D", "EPOCH": "2025-12-23T20:18:36.014688", "MEAN_MOTION": 15.04667121, "ECCENTRICITY": 0.00136387, "INCLINATION": 97.6497, "RA_OF_ASC_NODE": 70.2904, "ARG_OF_PERICENTER": 235.2803, "MEAN_ANOMALY": 124.7139, "EPHEMERIS_TYPE": 0, "CLASSIFICATION_TYPE": "U", "NORAD_CAT_ID": 66996, "ELEMENT_SET_NO": 999, "REV_AT_EPOCH": 206, "BSTAR": 0.00026744442, "MEAN_MOTION_DOT": 3.706e-05, "MEAN_MOTION_DDOT": 0}, "tle": {"line1": "1 66996U 25292D   25357.84625017  .00003706  00000+0  26744-3 0  9992", "line2": "2 66996  97.6497  70.2904 0013638 235.2803 124.7139 15.04667121  2064"}}, "geometry": {"type": "Point", "coordinates": [57.44967439296837, 59.72828668080944]}}, {"type": "Feature", "properties": {"norad_id": 66997, "name": "2025-292E", "group": "last-30-days", "lat": 63.775697164277595, "lon": 54.929271570924655, "alt_km": 555.6072577353316, "timestamp": "2025-12-24T07:45:04.934764+00:00", "meta": {"OBJECT_NAME": "2025-292E", "OBJECT_ID": "2025-292E", "EPOCH": "2025-12-23T21:53:16.399104", "MEAN_MOTION": 15.04756708, "ECCENTRICITY": 0.0014027, "INCLINATION": 97.6517, "RA_OF_ASC_NODE": 70.3606, "ARG_OF_PERICENTER": 236.0055, "MEAN_ANOMALY": 123.9839, "EPHEMERIS_TYPE": 0, "CLASSIFICATION_TYPE": "U", "NORAD_CAT_ID": 66997, "ELEMENT_SET_NO": 999, "REV_AT_EPOCH": 206, "BSTAR": 0.0002961645, "MEAN_MOTION_DOT": 4.122e-05, "MEAN_MOTION_DDOT": 0}, "tle": {"line1": "1 66997U 25292E   25357.91199536  .00004122  00000+0  29616-3 0  9997", "line2": "2 66997  97.6517  70.3606 0014027 236.0055 123.9839 15.04756708  2067"}}, "geometry": {"type": "Point", "coordinates": [54.929271570924655, 63.775697164277595]}}, {"type": "Feature", "properties": {"norad_id": 66998, "name": "2025-292F", "group": "last-30-days", "lat": 71.48166707858287, "lon": 47.1041450787289, "alt_km": 554.8284771803783, "timestamp": "2025-12-24T07:45:04.934777+00:00", "meta": {"OBJECT_NAME": "2025-292F", "OBJECT_ID": "2025-292F", "EPOCH": "2025-12-23T21:51:08.689536", "MEAN_MOTION": 15.04935052, "ECCENTRICITY": 0.00151657, "INCLINATION": 97.6536, "RA_OF_ASC_NODE": 70.3656, "ARG_OF_PERICENTER": 236.988, "MEAN_ANOMALY": 122.989, "EPHEMERIS_TYPE": 0, "CLASSIFICATION_TYPE": "U", "NORAD_CAT_ID": 66998, "ELEMENT_SET_NO": 999, "REV_AT_EPOCH": 207, "BSTAR": 0.00039715005, "MEAN_MOTION_DOT": 5.578e-05, "MEAN_MOTION_DDOT": 0}, "tle": {"line1": "1 66998U 25292F   25357.91051724  .00005578  00000+0  39715-3 0  9991", "line2": "2 66998  97.6536  70.3656 0015165 236.9880 122.9890 15.04935052  2071"}}, "geometry": {"type": "Point", "coordinates": [47.1041450787289, 71.48166707858287]}}, {"type": "Feature", "properties": {"norad_id": 66999, "name": "2025-292G", "group": "last-30-days", "lat": 74.36063216833949, "lon": 42.06479374076852, "alt_km": 554.0405870965997, "timestamp": "2025-12-24T07:45:04.934788+00:00", "meta": {"OBJECT_NAME": "2025-292G", "OBJECT_ID": "2025-292G", "EPOCH": "2025-12-23T21:50:18.676896", "MEAN_MOTION": 15.04998991, "ECCENTRICITY": 0.00146768, "INCLINATION": 97.6545, "RA_OF_ASC_NODE": 70.3677, "ARG_OF_PERICENTER": 238.9909, "MEAN_ANOMALY": 120.9876, "EPHEMERIS_TYPE": 0, "CLASSIFICATION_TYPE": "U", "NORAD_CAT_ID": 66999, "ELEMENT_SET_NO": 999, "REV_AT_EPOCH": 207, "BSTAR": 0.00040222655, "MEAN_MOTION_DOT": 5.659e-05, "MEAN_MOTION_DDOT": 0}, "tle": {"line1": "1 66999U 25292G   25357.90993839  .00005659  00000+0  40223-3 0  9999", "line2": "2 66999  97.6545  70.3677 0014676 238.9909 120.9876 15.04998991  2078"}}, "geometry": {"type": "Point", "coordinates": [42.06479374076852, 74.36063216833949]}}]}